GOES 1 (SMS-C) [-]      
1 08366U 75100A   22260.44832757 -.00000233  00000+0  00000+0 0  9995
2 08366   8.0594 294.5719 0002972 252.8264 249.5396  1.00265592171341
GOES 2 [-]              
1 10061U 77048A   22260.44237885 -.00000322  00000+0  00000+0 0  9993
2 10061   9.6467 306.1150 0010171  24.6106 318.6930  0.99400251 32664
GOES 3 [-]              
1 10953U 78062A   22260.03638102 -.00000233  00000+0  00000+0 0  9993
2 10953   9.9817 310.6680 0002876 175.8191 226.1968  0.99365244114937
GOES 4 [-]              
1 11964U 80074A   22259.84349979 -.00000115  00000+0  00000+0 0  9999
2 11964  10.9468 314.4956 0031611  78.2260 275.9716  0.99232768113840
GOES 5 [-]              
1 12472U 81049A   22260.16422414 -.00000280  00000+0  00000+0 0  9993
2 12472  11.8029 325.9049 0002450 190.2445 188.5938  1.00300449109123
GOES 6 [-]              
1 14050U 83041A   22260.22129029 -.00000265  00000+0  00000+0 0  9997
2 14050  12.3706 331.2230 0005001 159.7606 229.5759  1.00281653202295
GOES 7 [-]              
1 17561U 87022A   22259.67752567 -.00000369  00000+0  00000+0 0  9991
2 17561  14.1655 347.7942 0004837  82.0539 295.0486  0.99902433113287
GOES 8 [-]              
1 23051U 94022A   22260.37594970 -.00000042  00000+0  00000+0 0  9999
2 23051  13.2545  23.5326 0005343  59.2934 318.6128  0.98903385110591
GOES 9 [-]              
1 23581U 95025A   22260.58624549 -.00000269  00000+0  00000+0 0  9991
2 23581  12.7485  23.8856 0008455 114.4680 208.7053  0.98801973 99239
GOES 10 [-]             
1 24786U 97019A   22260.42289980 -.00000106  00000+0  00000+0 0  9993
2 24786  11.5231  30.0863 0027429 199.9417 198.9062  0.99122883 92509
GOES 11 [-]             
1 26352U 00022A   22260.36781573 -.00000220  00000+0  00000+0 0  9997
2 26352   8.8751  58.5729 0002432 123.9569  66.1088  0.99042955 38914
GOES 12 [-]             
1 26871U 01031A   22260.59146812  .00000072  00000+0  00000+0 0  9994
2 26871   9.6804  47.5615 0003585 333.3803 251.8961  0.99134171 77196
EWS-G1 (GOES 13) [+]    
1 29155U 06018A   22260.64698396  .00000028  00000+0  00000+0 0  9998
2 29155   0.8144  95.7947 0006595 114.1524  81.1985  1.00275819 59789
GOES 14 [B]             
1 35491U 09033A   22260.64047851 -.00000099  00000+0  00000+0 0  9991
2 35491   0.3961 267.4684 0017721 305.7754 269.4336  1.00273886 48436
GOES 15 [B]             
1 36411U 10008A   22260.61210715  .00000046  00000+0  00000+0 0  9997
2 36411   0.3561 277.3118 0004381 246.6330 285.2086  1.00262482 45938
GOES 16 [+]             
1 41866U 16071A   22260.59841047 -.00000255  00000+0  00000+0 0  9991
2 41866   0.0717 286.7589 0000835 309.8633 260.1183  1.00271429 21386
GOES 17 [+]             
1 43226U 18022A   22260.53170021  .00000091  00000+0  00000+0 0  9999
2 43226   0.0807 283.0871 0000298 279.4696 207.9734  1.00271481 16716
GOES 18 [+]             
1 51850U 22021A   22256.94429435  .00000084  00000+0  00000+0 0  9993
2 51850   0.0385  39.2153 0002959 175.1380 341.5351  1.00272937  2027
